*******************************************************************************
JPL/HORIZONS                338 Budrosa (A892 SF)          2020-Jun-22 08:53:35
Rec #:     338 (+COV) Soln.date: 2020-May-20_01:03:49   # obs: 2404 (1892-2020)
 
IAU76/J2000 helio. ecliptic osc. elements (au, days, deg., period=Julian yrs):
 
  EPOCH=  2455048.5 ! 2009-Aug-05.00 (TDB)         Residual RMS= .32598
   EC= .02087247205051137  QR= 2.851393647435211   TP= 2454318.0873120991
   OM= 287.6154701225207   W=  122.0542346281998   IN= 6.037788474354277
   A= 2.912178001375025    MA= 144.8590081429007   ADIST= 2.97296235531484
   PER= 4.96976            N= .198324874           ANGMOM= .029349167
   DAN= 2.94352            DDN= 2.87902            L= 49.813242
   B= 5.1146281            MOID= 1.86802995        TP= 2007-Aug-05.5873120991
 
Asteroid physical parameters (km, seconds, rotational period in hours):
   GM= n.a.                RAD= 25.253             ROTPER= 4.6084
   H= 8.5                  G= .150                 B-V= .704
                           ALBEDO= .276            STYP= Xk
 
ASTEROID comments: 
1: soln ref.= JPL#76, OCC=0
2: source=ORB
*******************************************************************************
 
 
*******************************************************************************
Ephemeris / WWW_USER Mon Jun 22 08:53:35 2020 Pasadena, USA      / Horizons
*******************************************************************************
Target body name: 338 Budrosa (A892 SF)           {source: JPL#76}
Center body name: Solar System Barycenter (0)     {source: DE431}
Center-site name: BODY CENTER
*******************************************************************************
Start time      : A.D. 1969-Jun-28 00:00:00.0000 TDB
Stop  time      : A.D. 2071-May-04 00:00:00.0000 TDB
Step-size       : 7200 minutes
*******************************************************************************
Center geodetic : 0.00000000,0.00000000,0.0000000 {E-lon(deg),Lat(deg),Alt(km)}
Center cylindric: 0.00000000,0.00000000,0.0000000 {E-lon(deg),Dxy(km),Dz(km)}
Center radii    : (undefined)                                                  
Small perturbers: Yes                             {source: SB431-N16}
Output units    : AU-D
Output type     : GEOMETRIC cartesian states
Output format   : 2 (position and velocity)
Reference frame : Ecliptic of J2000.0
*******************************************************************************
Initial IAU76/J2000 heliocentric ecliptic osculating elements (au, days, deg.):
  EPOCH=  2455048.5 ! 2009-Aug-05.00 (TDB)         Residual RMS= .32598        
   EC= .02087247205051137  QR= 2.851393647435211   TP= 2454318.0873120991      
   OM= 287.6154701225207   W=  122.0542346281998   IN= 6.037788474354277       
  Equivalent ICRF heliocentric equatorial cartesian coordinates (au, au/d):
   X=-2.833637616120293E+00  Y=-6.150630601802896E-01  Z=-6.061170045522930E-01
  VX= 2.599990434372887E-03 VY=-8.754537486431065E-03 VZ=-3.843437884125527E-03
Asteroid physical parameters (km, seconds, rotational period in hours):        
   GM= n.a.                RAD= 25.253             ROTPER= 4.6084              
   H= 8.5                  G= .150                 B-V= .704                   
                           ALBEDO= .276            STYP= Xk                    
*******************************************************************************
            JDTDB,            Calendar Date (TDB),        delta-T,                      X,                      Y,                      Z,                     VX,                     VY,                     VZ,
******************************************************************************************************************************************************************************************************************
$$SOE
2440820.500000000, A.D. 1970-Aug-22 00:00:00.0000,      40.786787, -8.470024961014225E-01, -2.827098642139348E+00, -1.800557338094369E-01,  9.462246390310888E-03, -2.820758203794576E-03,  8.568181247078264E-04,
2440825.500000000, A.D. 1970-Aug-27 00:00:00.0000,      40.799656, -7.995725513219150E-01, -2.840798398696639E+00, -1.757461606902849E-01,  9.509283773758087E-03, -2.659004045309801E-03,  8.669707205608003E-04,
2440830.500000000, A.D. 1970-Sep-01 00:00:00.0000,      40.812535, -7.519141479972726E-01, -2.853687314995033E+00, -1.713864330488401E-01,  9.553627398391372E-03, -2.496429337077065E-03,  8.768794512540512E-04,
2440835.500000000, A.D. 1970-Sep-06 00:00:00.0000,      40.825424, -7.040407905388374E-01, -2.865761397054191E+00, -1.669777774001404E-01,  9.595263123928643E-03, -2.333077629383983E-03,  8.865414503763160E-04,
2440840.500000000, A.D. 1970-Sep-11 00:00:00.0000,      40.838322, -6.559660524559834E-01, -2.877016869283393E+00, -1.625214344515266E-01,  9.634177452227072E-03, -2.168992726644298E-03,  8.959539075156278E-04,
2440845.500000000, A.D. 1970-Sep-16 00:00:00.0000,      40.851230, -6.077035731337678E-01, -2.887450175734932E+00, -1.580186588211480E-01,  9.670357531912838E-03, -2.004218680491375E-03,  9.051140688645586E-04,
2440850.500000000, A.D. 1970-Sep-21 00:00:00.0000,      40.864150, -5.592670545878577E-01, -2.897057981322726E+00, -1.534707187533577E-01,  9.703791162850172E-03, -1.838799782757602E-03,  9.140192378578587E-04,
2440855.500000000, A.D. 1970-Sep-26 00:00:00.0000,      40.877083, -5.106702581974105E-01, -2.905837173005398E+00, -1.488788958308341E-01,  9.734466800496810E-03, -1.672780558276133E-03,  9.226667758461681E-04,
2440860.500000000, A.D. 1970-Oct-01 00:00:00.0000,      40.890029, -4.619270014163733E-01, -2.913784860932735E+00, -1.442444846832402E-01,  9.762373560192834E-03, -1.506205757399200E-03,  9.310541028062530E-04,
2440865.500000000, A.D. 1970-Oct-06 00:00:00.0000,      40.902988, -4.130511544632943E-01, -2.920898379553756E+00, -1.395687926922599E-01,  9.787501221491307E-03, -1.339120348123760E-03,  9.391786980765545E-04,
2440870.500000000, A.D. 1970-Oct-11 00:00:00.0000,      40.915957, -3.640566369890960E-01, -2.927175288684588E+00, -1.348531396929472E-01,  9.809840232653527E-03, -1.171569507927442E-03,  9.470381010904637E-04,
2440875.500000000, A.D. 1970-Oct-16 00:00:00.0000,      40.928937, -3.149574147220016E-01, -2.932613374535427E+00, -1.300988576714623E-01,  9.829381715269559E-03, -1.003598615611266E-03,  9.546299120908513E-04,
2440880.500000000, A.D. 1970-Oct-21 00:00:00.0000,      40.941930, -2.657674960893504E-01, -2.937210650696982E+00, -1.253072904592513E-01,  9.846117468864752E-03, -8.352532432371325E-04,  9.619517928380004E-04,
2440885.500000000, A.D. 1970-Oct-26 00:00:00.0000,      40.954936, -2.165009288165777E-01, -2.940965359086609E+00, -1.204797934236779E-01,  9.860039975423188E-03, -6.665791480496434E-04,  9.690014673264607E-04,
2440890.500000000, A.D. 1970-Oct-31 00:00:00.0000,      40.967955, -1.671717965037531E-01, -2.943875970853802E+00, -1.156177331550283E-01,  9.871142403844856E-03, -4.976222642795993E-04,  9.757767225137961E-04,
2440895.500000000, A.D. 1970-Nov-05 00:00:00.0000,      40.980985, -1.177942151799844E-01, -2.945941187244327E+00, -1.107224871498554E-01,  9.879418614341927E-03, -3.284286948013395E-04,  9.822754090600052E-04,
2440900.500000000, A.D. 1970-Nov-10 00:00:00.0000,      40.994024, -6.838232983599726E-02, -2.947159940422234E+00, -1.057954434906004E-01,  9.884863162770601E-03, -1.590447026230771E-04,  9.884954420761934E-04,
2440905.500000000, A.D. 1970-Nov-15 00:00:00.0000,      41.007073, -1.895031093522672E-02, -2.947531394248856E+00, -1.008380005214481E-01,  9.887471304899153E-03,  1.048329782570875E-05,  9.944348018787754E-04,
2440910.500000000, A.D. 1970-Nov-20 00:00:00.0000,      41.020131,  3.048764909632446E-02, -2.947054945017640E+00, -9.585156652041570E-02,  9.887239000636905E-03,  1.801087496330743E-04,  1.000091534743220E-03,
2440915.500000000, A.D. 1970-Nov-25 00:00:00.0000,      41.033200,  7.991733940137785E-02, -2.945730222143756E+00, -9.083755936769440E-02,  9.884162918272418E-03,  3.497849625690209E-04,  1.005463753647695E-03,
2440920.500000000, A.D. 1970-Nov-30 00:00:00.0000,      41.046278,  1.293245342439545E-01, -2.943557088807434E+00, -8.579740621030688E-02,  9.878240438751774E-03,  5.194651223960451E-04,  1.010549639002332E-03,
2440925.500000000, A.D. 1970-Dec-05 00:00:00.0000,      41.059363,  1.786949965834133E-01, -2.940535642550553E+00, -8.073254312314797E-02,  9.869469659983345E-03,  6.891023002616381E-04,  1.015347439366579E-03,
2440930.500000000, A.D. 1970-Dec-10 00:00:00.0000,      41.072453,  2.280144816699851E-01, -2.936666215826205E+00, -7.564441476645167E-02,  9.857849401114999E-03,  8.586494621012475E-04,  1.019855472164178E-03,
2440935.500000000, A.D. 1970-Dec-15 00:00:00.0000,      41.085547,  2.772687406615125E-01, -2.931949376501213E+00, -7.053447403967747E-02,  9.843379206734091E-03,  1.028059478058833E-03,  1.024072124402687E-03,
2440940.500000000, A.D. 1970-Dec-20 00:00:00.0000,      41.098645,  3.264435242608965E-01, -2.926385928311464E+00, -6.540418173176912E-02,  9.826059350944192E-03,  1.197285131947703E-03,  1.027995853403153E-03,
2440945.500000000, A.D. 1970-Dec-25 00:00:00.0000,      41.111749,  3.755245863735486E-01, -2.919976911269721E+00, -6.025500616773912E-02,  9.805890841283641E-03,  1.366279130812310E-03,  1.031625187541084E-03,
2440950.500000000, A.D. 1970-Dec-30 00:00:00.0000,      41.124855,  4.244976877839734E-01, -2.912723602025076E+00, -5.508842285153016E-02,  9.782875422459968E-03,  1.534994114744579E-03,  1.034958726993679E-03,
2440955.500000000, A.D. 1971-Jan-04 00:00:00.0000,      41.137962,  4.733485998506873E-01, -2.904627514172299E+00, -4.990591410515630E-02,  9.757015579974691E-03,  1.703382667125011E-03,  1.037995144475639E-03,
